ONEWEB-0269             
1 48987U 21060W   23283.42534759  .00000012  00000+0 -21570-5 0  9995
2 48987  87.9129  63.9976 0001661  97.9898 262.1421 13.16594958110571
ONEWEB-0270             
1 48988U 21060X   23283.44221730  .00000029  00000+0  41782-4 0  9993
2 48988  87.9037  63.9809 0001901  71.6763 288.4575 13.16596836110615
ONEWEB-0271             
1 48989U 21060Y   23283.42955093 -.00000004  00000+0 -43247-4 0  9991
2 48989  87.9038  63.9588 0002000  82.6840 277.4518 13.16597139110612
ONEWEB-0272             
1 48990U 21060Z   23283.45277578  .00000070  00000+0  15069-3 0  9992
2 48990  87.9041  63.9786 0001927  86.4258 273.7093 13.16595842110560
ONEWEB-0273             
1 48991U 21060AA  23283.47388708  .00000087  00000+0  19362-3 0  9991
2 48991  87.9038  63.9635 0001694  86.7843 273.3482 13.16595100110547
ONEWEB-0274             
1 48992U 21060AB  23283.42321938 -.00000017  00000+0 -79198-4 0  9998
2 48992  87.9037  63.9774 0002352  97.5214 262.6184 13.16595568110576
ONEWEB-0275             
1 48993U 21060AC  23283.41266610 -.00000001  00000+0 -36585-4 0  9999
2 48993  87.9031  63.9805 0001653  92.9269 267.2051 13.16598543110501
ONEWEB-0276             
1 48994U 21060AD  23283.44646012  .00000077  00000+0  16750-3 0  9993
2 48994  87.9038  63.9627 0001805  81.0645 279.0690 13.16595293110528
ONEWEB-0277             
1 48995U 21060AE  23283.45911407  .00000119  00000+0  27642-3 0  9997
2 48995  87.9143  63.9974 0002075  80.1957 279.9408 13.16593515110517
ONEWEB-0278             
1 48996U 21060AF  23283.44856488  .00000064  00000+0  13425-3 0  9997
2 48996  87.9038  63.9586 0001331  98.5628 261.5654 13.16595876110648
ONEWEB-0279             
1 48997U 21060AG  23283.45701301  .00000128  00000+0  30188-3 0  9998
2 48997  87.9037  63.9547 0001706  94.5702 265.5624 13.16593853110576
ONEWEB-0280             
1 48998U 21060AH  23283.47177954  .00000121  00000+0  28173-3 0  9996
2 48998  87.9038  63.9516 0002312  79.5109 280.6282 13.16595844110516
ONEWEB-0281             
1 48999U 21060AJ  23283.40212235  .00000096  00000+0  21647-3 0  9992
2 48999  87.9038  63.9694 0001852 100.7866 259.3473 13.16594395110570
ONEWEB-0282             
1 49000U 21060AK  23283.88765206  .00000010  00000+0 -63632-5 0  9998
2 49000  87.9037  63.8889 0001664  81.3840 278.7480 13.16594497111932
ONEWEB-0283             
1 49001U 21060AL  23283.42111317  .00000003  00000+0 -25691-4 0  9991
2 49001  87.9099  63.9834 0001954  84.8560 275.2794 13.16594963110567
ONEWEB-0284             
1 49002U 21060AM  23283.41477287  .00000052  00000+0  10270-3 0  9991
2 49002  87.9025  63.9983 0001581  84.1587 275.9724 13.16596809110549
ONEWEB-0285             
1 49075U 21075A   23283.50100873  .00000296  00000+0  78834-3 0  9991
2 49075  87.9067 185.6501 0001783  70.0498 290.0823 13.12445500106575
ONEWEB-0286             
1 49076U 21075B   23283.46927619 -.00000054  00000+0 -18402-3 0  9991
2 49076  87.9069 185.6651 0001720  90.3571 269.7754 13.12444017105928
ONEWEB-0287             
1 49077U 21075C   23283.52879915 -.00000053  00000+0 -16938-3 0  9995
2 49077  87.9180 200.7553 0001490  74.9327 285.1969 13.17647525104488
ONEWEB-0288             
1 49078U 21075D   23283.45442765 -.00000791  00000+0 -22338-2 0  9996
2 49078  87.9070 185.6729 0001642  75.8242 284.3069 13.12442668106545
ONEWEB-0289             
1 49079U 21075E   23283.78403250  .00000053  00000+0  10286-3 0  9998
2 49079  87.9262 200.7123 0001989  74.5221 285.6130 13.17649717106062
ONEWEB-0290             
1 49080U 21075F   23283.53934674 -.00000031  00000+0 -11363-3 0  9997
2 49080  87.9183 200.7486 0001645  64.5870 295.5431 13.17649082104478
ONEWEB-0291             
1 49081U 21075G   23283.52247133 -.00000012  00000+0 -62929-4 0  9998
2 49081  87.9251 200.7684 0001527  72.4809 287.6490 13.17647350104466
ONEWEB-0293             
1 49082U 21075H   23283.47185633  .00000097  00000+0  21650-3 0  9995
2 49082  87.9261 200.7719 0001632  69.9903 290.1404 13.17650268104488
ONEWEB-0294             
1 49083U 21075J   23283.76468761 -.00000373  00000+0 -10711-2 0  9998
2 49083  87.9072 185.6102 0001167  50.1453 309.9778 13.12444935106966
ONEWEB-0295             
1 49084U 21075K   23283.47395713  .00000081  00000+0  17504-3 0  9995
2 49084  87.9267 200.7421 0001324  80.7440 279.3841 13.17649698104446
ONEWEB-0296             
1 49085U 21075L   23283.44386009 -.00000234  00000+0 -68599-3 0  9993
2 49085  87.9069 185.6713 0000870  78.1433 281.9793 13.12441076105935
ONEWEB-0297             
1 49086U 21075M   23283.47349360  .00000099  00000+0  23960-3 0  9996
2 49086  87.9075 185.6523 0001980  81.0662 279.0690 13.12444945106542
ONEWEB-0298             
1 49087U 21075N   23283.32419844  .00000131  00000+0  30345-3 0  9998
2 49087  87.9266 200.7928 0001718  81.1836 278.9490 13.17651397104456
ONEWEB-0299             
1 49088U 21075P   23283.78192058  .00000011  00000+0 -60676-5 0  9994
2 49088  87.9200 200.7070 0001639  82.7345 277.3973 13.17647571105467
ONEWEB-0300             
1 49089U 21075Q   23283.76996310 -.00000258  00000+0 -75218-3 0  9996
2 49089  87.9069 185.6068 0001887  80.4737 279.6605 13.12446924107591
ONEWEB-0301             
1 49090U 21075R   23283.45019169 -.00000372  00000+0 -10704-2 0  9997
2 49090  87.9073 185.6718 0002182  75.4159 284.7211 13.12446568105920
ONEWEB-0302             
1 49091U 21075S   23283.43855319 -.00000083  00000+0 -26491-3 0  9991
2 49091  87.9070 185.6710 0001508  72.8028 287.3266 13.12441285105905
ONEWEB-0304             
1 49092U 21075T   23283.53090933 -.00000089  00000+0 -26346-3 0  9991
2 49092  87.9252 200.7537 0001764  81.2934 278.8397 13.17647252104432
ONEWEB-0305             
1 49093U 21075U   23283.52035573 -.00000055  00000+0 -17560-3 0  9991
2 49093  87.9177 200.7535 0001491  88.3423 271.7879 13.17646768105434
ONEWEB-0308             
1 49094U 21075V   23283.43325888  .00000174  00000+0  44737-3 0  9999
2 49094  87.9070 185.6745 0001902  75.4599 284.6741 13.12442992105911
ONEWEB-0309             
1 49095U 21075W   23283.52669401 -.00000017  00000+0 -76195-4 0  9994
2 49095  87.9178 200.7581 0001425  58.8245 301.3026 13.17647371104433
ONEWEB-0310             
1 49096U 21075X   23283.44490248 -.00000249  00000+0 -72769-3 0  9996
2 49096  87.9077 185.6562 0001693  64.5301 295.6002 13.12442973106545
ONEWEB-0311             
1 49097U 21075Y   23283.30521890  .00000148  00000+0  34894-3 0  9993
2 49097  87.9178 200.8055 0001619  89.8642 270.2675 13.17651482104456
ONEWEB-0312             
1 49098U 21075Z   23283.46974591  .00000032  00000+0  49787-4 0  9991
2 49098  87.9261 200.7767 0001284  75.1241 285.0033 13.17648696105434
ONEWEB-0313             
1 49099U 21075AA  23283.52458780 -.00000054  00000+0 -17176-3 0  9998
2 49099  87.9251 200.7806 0001469  77.7579 282.3717 13.17648903104456
ONEWEB-0314             
1 49100U 21075AB  23283.51825038 -.00000026  00000+0 -10081-3 0  9991
2 49100  87.9174 200.7559 0001248  79.5766 280.5506 13.17647974104421
ONEWEB-0315             
1 49101U 21075AC  23283.49256727  .00000526  00000+0  14272-2 0  9990
2 49101  87.9070 185.6564 0002045  79.0588 281.0770 13.12444638107538
ONEWEB-0316             
1 49102U 21075AD  23283.45518291 -.00000083  00000+0 -24293-3 0  9999
2 49102  87.9209 170.5522 0001665  85.4854 274.6468 13.18685496107957
ONEWEB-0317             
1 49103U 21075AE  23283.48832897  .00000443  00000+0  11959-2 0  9996
2 49103  87.9070 185.6636 0001717  66.1126 294.0183 13.12442112106558
ONEWEB-0318             
1 49104U 21075AF  23283.45307238 -.00000020  00000+0 -83016-4 0  9998
2 49104  87.9212 170.5441 0001705  89.9015 270.2313 13.18688066107919
ONEWEB-0319             
1 49105U 21075AG  23283.53513458 -.00000052  00000+0 -16589-3 0  9996
2 49105  87.9259 200.7576 0001560  97.3709 262.7600 13.17648706104466
ONEWEB-0323             
1 49106U 21075AH  23283.47878587  .00000210  00000+0  54893-3 0  9991
2 49106  87.9070 185.6541 0001642  81.8331 278.2983 13.12444551106916
ONEWEB-0329             
1 49107U 21075AJ  23283.46552346  .00000077  00000+0  16504-3 0  9991
2 49107  87.9261 200.7744 0001596  77.9334 282.1976 13.17648946105420
ONEWEB-0330             
1 49108U 21075AK  23283.54356695 -.00000038  00000+0 -13166-3 0  9990
2 49108  87.9251 200.7715 0001509  71.8237 288.3059 13.17648803105474
ONEWEB-0292             
1 49186U 21083A   23283.37722084 -.00000207  00000+0 -60271-3 0  9992
2 49186  87.9039 155.4049 0001719  78.6920 281.4402 13.13473451102178
ONEWEB-0303             
1 49187U 21083B   23283.44885215 -.00000061  00000+0 -18847-3 0  9997
2 49187  87.9210 170.5476 0001653  85.3228 274.8093 13.18687866100728
ONEWEB-0306             
1 49188U 21083C   23283.44042841 -.00000010  00000+0 -58321-4 0  9994
2 49188  87.9209 170.5359 0001903  83.6207 276.5141 13.18688117100760
ONEWEB-0307             
1 49189U 21083D   23283.37298688 -.00000601  00000+0 -16799-2 0  9996
2 49189  87.9040 155.4040 0001601  75.2579 284.8728 13.13469713102171
ONEWEB-0320             
1 49190U 21083E   23283.44675475  .00000052  00000+0  98417-4 0  9996
2 49190  87.9215 170.5586 0001686  72.6512 287.4805 13.18685367100725
ONEWEB-0321             
1 49191U 21083F   23283.52979107  .00000009  00000+0 -10916-4 0  9996
2 49191  87.9142 109.6852 0001982  80.0525 280.0832 13.20773617107387
ONEWEB-0322             
1 49192U 21083G   23283.36876117 -.00000629  00000+0 -17561-2 0  9996
2 49192  87.9039 155.3937 0001814  56.0965 304.0336 13.13469863102164
ONEWEB-0324             
1 49193U 21083H   23283.43199207  .00000015  00000+0  55980-5 0  9990
2 49193  87.9209 170.5410 0001516  88.3692 271.7614 13.18687140100749
ONEWEB-0325             
1 49194U 21083J   23283.58795575  .00000088  00000+0  19056-3 0  9999
2 49194  87.9396 170.4690 0001817  74.5563 285.5770 13.18690985100774
